LANDSAT 8               
1 39084U 13008A   26065.77629888  .00000538  00000+0  12939-3 0  9992
2 39084  98.1923 137.5497 0001226  91.9026 268.2313 14.57127961682983
SARAL                   
1 39086U 13009A   26065.80784004  .00000181  00000+0  82462-4 0  9994
2 39086  98.5553 253.6600 0001313 189.5941 170.5219 14.32827445680942
GAOFEN-1                
1 39150U 13018A   26065.86965542  .00000434  00000+0  69425-4 0  9995
2 39150  97.9181 139.9805 0016213 234.1477 125.8227 14.76539269693143
VNREDSAT 1              
1 39160U 13021B   26065.83604451  .00000539  00000+0  10886-3 0  9998
2 39160  97.9218 123.1111 0001621  88.6311 271.5079 14.65067650685307
ARIRANG-5 (KOMPSAT-5)   
1 39227U 13042A   26065.80970968  .00002590  00000+0  18919-3 0  9995
2 39227  97.6181 253.9325 0003835 119.9217 240.2390 15.04531165688468
SKYSAT-A                
1 39418U 13066C   26065.59193805  .00004165  00000+0  24295-3 0  9990
2 39418  97.3956 118.2314 0020328 312.0487  47.9013 15.12326310672975
DUBAISAT-2              
1 39419U 13066D   26065.87251786  .00003700  00000+0  23556-3 0  9998
2 39419  97.4526  58.7832 0012411  32.7973 327.4025 15.09313511670953
GPM-CORE                
1 39574U 14009C   26065.79677335  .00009926  00000+0  21641-3 0  9990
2 39574  64.9727 291.1783 0012429 265.1968  94.7753 15.44656676681999
SENTINEL-1A             
1 39634U 14016A   26065.85323233  .00000012  00000+0  12307-4 0  9994
2 39634  98.1815  74.8638 0001356  84.4467 275.6887 14.59197631635095
KAZEOSAT 1              
1 39731U 14024A   26065.81660669  .00000208  00000+0  76315-4 0  9990
2 39731  98.3288 140.7796 0001058  82.3779 277.7531 14.42033532623805
ALOS-2                  
1 39766U 14029A   26065.81065920  .00001794  00000+0  24698-3 0  9999
2 39766  97.9197 164.4493 0001414  97.4409 262.6963 14.79488454636440
KAZEOSAT 2              
1 40010U 14033A   26065.83790373  .00000875  00000+0  10754-3 0  9994
2 40010  97.5481 270.8083 0007440 304.0029  56.0479 14.85330598633764
HODOYOSHI-4             
1 40011U 14033B   26065.81991226  .00002994  00000+0  33180-3 0  9995
2 40011  97.5446 255.5916 0022270 286.3928  73.4841 14.87834144633583
DEIMOS-2                
1 40013U 14033D   26065.81462168  .00003330  00000+0  32232-3 0  9997
2 40013  97.5982 303.8308 0001360  58.7847 301.3506 14.93397611622444
HODOYOSHI-3             
1 40015U 14033F   26065.44662208  .00001864  00000+0  22203-3 0  9992
2 40015  97.6295 232.6979 0032349 335.1768  24.7889 14.85127024632375
SPOT 7                  
1 40053U 14034A   26065.85566782  .00000443  00000+0  99873-4 0  9990
2 40053  98.0749 130.9378 0001330 100.9391 259.1960 14.60856590622198
SKYSAT-B                
1 40072U 14037D   26065.83746155  .00002430  00000+0  27336-3 0  9998
2 40072  98.3725  19.0618 0004259 245.2910 114.7861 14.87713289630745
