[{"OBJECT_NAME":"LANDSAT 8","OBJECT_ID":"2013-008A","EPOCH":"2026-03-06T18:37:52.223232","MEAN_MOTION":14.57127961,"ECCENTRICITY":0.0001226,"INCLINATION":98.1923,"RA_OF_ASC_NODE":137.5497,"ARG_OF_PERICENTER":91.9026,"MEAN_ANOMALY":268.2313,"EPHEMERIS_TYPE":0,"CLASSIFICATION_TYPE":"U","NORAD_CAT_ID":39084,"ELEMENT_SET_NO":999,"REV_AT_EPOCH":68298,"BSTAR":0.00012939,"MEAN_MOTION_DOT":5.38e-6,"MEAN_MOTION_DDOT":0},{"OBJECT_NAME":"SARAL","OBJECT_ID":"2013-009A","EPOCH":"2026-03-06T19:23:17.379456","MEAN_MOTION":14.32827445,"ECCENTRICITY":0.0001313,"INCLINATION":98.5553,"RA_OF_ASC_NODE":253.66,"ARG_OF_PERICENTER":189.5941,"MEAN_ANOMALY":170.5219,"EPHEMERIS_TYPE":0,"CLASSIFICATION_TYPE":"U","NORAD_CAT_ID":39086,"ELEMENT_SET_NO":999,"REV_AT_EPOCH":68094,"BSTAR":8.2462e-5,"MEAN_MOTION_DOT":1.81e-6,"MEAN_MOTION_DDOT":0},{"OBJECT_NAME":"GAOFEN-1","OBJECT_ID":"2013-018A","EPOCH":"2026-03-06T20:52:18.228288","MEAN_MOTION":14.76539269,"ECCENTRICITY":0.0016213,"INCLINATION":97.9181,"RA_OF_ASC_NODE":139.9805,"ARG_OF_PERICENTER":234.1477,"MEAN_ANOMALY":125.8227,"EPHEMERIS_TYPE":0,"CLASSIFICATION_TYPE":"U","NORAD_CAT_ID":39150,"ELEMENT_SET_NO":999,"REV_AT_EPOCH":69314,"BSTAR":6.9425e-5,"MEAN_MOTION_DOT":4.34e-6,"MEAN_MOTION_DDOT":0},{"OBJECT_NAME":"VNREDSAT 1","OBJECT_ID":"2013-021B","EPOCH":"2026-03-06T20:03:54.245664","MEAN_MOTION":14.6506765,"ECCENTRICITY":0.0001621,"INCLINATION":97.9218,"RA_OF_ASC_NODE":123.1111,"ARG_OF_PERICENTER":88.6311,"MEAN_ANOMALY":271.5079,"EPHEMERIS_TYPE":0,"CLASSIFICATION_TYPE":"U","NORAD_CAT_ID":39160,"ELEMENT_SET_NO":999,"REV_AT_EPOCH":68530,"BSTAR":0.00010886,"MEAN_MOTION_DOT":5.39e-6,"MEAN_MOTION_DDOT":0},{"OBJECT_NAME":"ARIRANG-5 (KOMPSAT-5)","OBJECT_ID":"2013-042A","EPOCH":"2026-03-06T19:25:58.916352","MEAN_MOTION":15.04531165,"ECCENTRICITY":0.0003835,"INCLINATION":97.6181,"RA_OF_ASC_NODE":253.9325,"ARG_OF_PERICENTER":119.9217,"MEAN_ANOMALY":240.239,"EPHEMERIS_TYPE":0,"CLASSIFICATION_TYPE":"U","NORAD_CAT_ID":39227,"ELEMENT_SET_NO":999,"REV_AT_EPOCH":68846,"BSTAR":0.00018919,"MEAN_MOTION_DOT":2.59e-5,"MEAN_MOTION_DDOT":0},{"OBJECT_NAME":"SKYSAT-A","OBJECT_ID":"2013-066C","EPOCH":"2026-03-06T14:12:23.447520","MEAN_MOTION":15.1232631,"ECCENTRICITY":0.00203281,"INCLINATION":97.3956,"RA_OF_ASC_NODE":118.2314,"ARG_OF_PERICENTER":312.0487,"MEAN_ANOMALY":47.9013,"EPHEMERIS_TYPE":0,"CLASSIFICATION_TYPE":"U","NORAD_CAT_ID":39418,"ELEMENT_SET_NO":999,"REV_AT_EPOCH":67297,"BSTAR":0.00024295394,"MEAN_MOTION_DOT":4.165e-5,"MEAN_MOTION_DDOT":0},{"OBJECT_NAME":"DUBAISAT-2","OBJECT_ID":"2013-066D","EPOCH":"2026-03-06T20:56:25.543104","MEAN_MOTION":15.09313511,"ECCENTRICITY":0.0012411,"INCLINATION":97.4526,"RA_OF_ASC_NODE":58.7832,"ARG_OF_PERICENTER":32.7973,"MEAN_ANOMALY":327.4025,"EPHEMERIS_TYPE":0,"CLASSIFICATION_TYPE":"U","NORAD_CAT_ID":39419,"ELEMENT_SET_NO":999,"REV_AT_EPOCH":67095,"BSTAR":0.00023556,"MEAN_MOTION_DOT":3.7e-5,"MEAN_MOTION_DDOT":0},{"OBJECT_NAME":"GPM-CORE","OBJECT_ID":"2014-009C","EPOCH":"2026-03-06T19:07:21.217440","MEAN_MOTION":15.44656676,"ECCENTRICITY":0.0012429,"INCLINATION":64.9727,"RA_OF_ASC_NODE":291.1783,"ARG_OF_PERICENTER":265.1968,"MEAN_ANOMALY":94.7753,"EPHEMERIS_TYPE":0,"CLASSIFICATION_TYPE":"U","NORAD_CAT_ID":39574,"ELEMENT_SET_NO":999,"REV_AT_EPOCH":68199,"BSTAR":0.00021641,"MEAN_MOTION_DOT":9.926e-5,"MEAN_MOTION_DDOT":0},{"OBJECT_NAME":"SENTINEL-1A","OBJECT_ID":"2014-016A","EPOCH":"2026-03-06T20:28:39.273312","MEAN_MOTION":14.59197631,"ECCENTRICITY":0.0001356,"INCLINATION":98.1815,"RA_OF_ASC_NODE":74.8638,"ARG_OF_PERICENTER":84.4467,"MEAN_ANOMALY":275.6887,"EPHEMERIS_TYPE":0,"CLASSIFICATION_TYPE":"U","NORAD_CAT_ID":39634,"ELEMENT_SET_NO":999,"REV_AT_EPOCH":63509,"BSTAR":1.2307e-5,"MEAN_MOTION_DOT":1.2e-7,"MEAN_MOTION_DDOT":0},{"OBJECT_NAME":"KAZEOSAT 1","OBJECT_ID":"2014-024A","EPOCH":"2026-03-06T19:35:54.818016","MEAN_MOTION":14.42033532,"ECCENTRICITY":0.0001058,"INCLINATION":98.3288,"RA_OF_ASC_NODE":140.7796,"ARG_OF_PERICENTER":82.3779,"MEAN_ANOMALY":277.7531,"EPHEMERIS_TYPE":0,"CLASSIFICATION_TYPE":"U","NORAD_CAT_ID":39731,"ELEMENT_SET_NO":999,"REV_AT_EPOCH":62380,"BSTAR":7.6315e-5,"MEAN_MOTION_DOT":2.08e-6,"MEAN_MOTION_DDOT":0},{"OBJECT_NAME":"ALOS-2","OBJECT_ID":"2014-029A","EPOCH":"2026-03-06T19:27:20.954880","MEAN_MOTION":14.79488454,"ECCENTRICITY":0.0001414,"INCLINATION":97.9197,"RA_OF_ASC_NODE":164.4493,"ARG_OF_PERICENTER":97.4409,"MEAN_ANOMALY":262.6963,"EPHEMERIS_TYPE":0,"CLASSIFICATION_TYPE":"U","NORAD_CAT_ID":39766,"ELEMENT_SET_NO":999,"REV_AT_EPOCH":63644,"BSTAR":0.00024698,"MEAN_MOTION_DOT":1.794e-5,"MEAN_MOTION_DDOT":0},{"OBJECT_NAME":"KAZEOSAT 2","OBJECT_ID":"2014-033A","EPOCH":"2026-03-06T20:06:34.882272","MEAN_MOTION":14.85330598,"ECCENTRICITY":0.000744,"INCLINATION":97.5481,"RA_OF_ASC_NODE":270.8083,"ARG_OF_PERICENTER":304.0029,"MEAN_ANOMALY":56.0479,"EPHEMERIS_TYPE":0,"CLASSIFICATION_TYPE":"U","NORAD_CAT_ID":40010,"ELEMENT_SET_NO":999,"REV_AT_EPOCH":63376,"BSTAR":0.00010754,"MEAN_MOTION_DOT":8.75e-6,"MEAN_MOTION_DDOT":0},{"OBJECT_NAME":"HODOYOSHI-4","OBJECT_ID":"2014-033B","EPOCH":"2026-03-06T19:40:40.419264","MEAN_MOTION":14.87834144,"ECCENTRICITY":0.002227,"INCLINATION":97.5446,"RA_OF_ASC_NODE":255.5916,"ARG_OF_PERICENTER":286.3928,"MEAN_ANOMALY":73.4841,"EPHEMERIS_TYPE":0,"CLASSIFICATION_TYPE":"U","NORAD_CAT_ID":40011,"ELEMENT_SET_NO":999,"REV_AT_EPOCH":63358,"BSTAR":0.0003318,"MEAN_MOTION_DOT":2.994e-5,"MEAN_MOTION_DDOT":0},{"OBJECT_NAME":"DEIMOS-2","OBJECT_ID":"2014-033D","EPOCH":"2026-03-06T19:33:03.313152","MEAN_MOTION":14.93397611,"ECCENTRICITY":0.000136,"INCLINATION":97.5982,"RA_OF_ASC_NODE":303.8308,"ARG_OF_PERICENTER":58.7847,"MEAN_ANOMALY":301.3506,"EPHEMERIS_TYPE":0,"CLASSIFICATION_TYPE":"U","NORAD_CAT_ID":40013,"ELEMENT_SET_NO":999,"REV_AT_EPOCH":62244,"BSTAR":0.00032232,"MEAN_MOTION_DOT":3.33e-5,"MEAN_MOTION_DDOT":0},{"OBJECT_NAME":"HODOYOSHI-3","OBJECT_ID":"2014-033F","EPOCH":"2026-03-06T10:43:08.147712","MEAN_MOTION":14.85127024,"ECCENTRICITY":0.00323496,"INCLINATION":97.6295,"RA_OF_ASC_NODE":232.6979,"ARG_OF_PERICENTER":335.1768,"MEAN_ANOMALY":24.7889,"EPHEMERIS_TYPE":0,"CLASSIFICATION_TYPE":"U","NORAD_CAT_ID":40015,"ELEMENT_SET_NO":999,"REV_AT_EPOCH":63237,"BSTAR":0.00022202813,"MEAN_MOTION_DOT":1.864e-5,"MEAN_MOTION_DDOT":0},{"OBJECT_NAME":"SPOT 7","OBJECT_ID":"2014-034A","EPOCH":"2026-03-06T20:32:09.699648","MEAN_MOTION":14.6085659,"ECCENTRICITY":0.000133,"INCLINATION":98.0749,"RA_OF_ASC_NODE":130.9378,"ARG_OF_PERICENTER":100.9391,"MEAN_ANOMALY":259.196,"EPHEMERIS_TYPE":0,"CLASSIFICATION_TYPE":"U","NORAD_CAT_ID":40053,"ELEMENT_SET_NO":999,"REV_AT_EPOCH":62219,"BSTAR":9.9873e-5,"MEAN_MOTION_DOT":4.43e-6,"MEAN_MOTION_DDOT":0},{"OBJECT_NAME":"SKYSAT-B","OBJECT_ID":"2014-037D","EPOCH":"2026-03-06T20:05:56.677920","MEAN_MOTION":14.87713289,"ECCENTRICITY":0.0004259,"INCLINATION":98.3725,"RA_OF_ASC_NODE":19.0618,"ARG_OF_PERICENTER":245.291,"MEAN_ANOMALY":114.7861,"EPHEMERIS_TYPE":0,"CLASSIFICATION_TYPE":"U","NORAD_CAT_ID":40072,"ELEMENT_SET_NO":999,"REV_AT_EPOCH":63074,"BSTAR":0.00027336,"MEAN_MOTION_DOT":2.43e-5,"MEAN_MOTION_DDOT":0}]
